{
  "type": "FeatureCollection",
  "features": [
    {
      "type": "Feature",
      "properties": {
        "norad_id": 66801,
        "name": "STARLINK-36080",
        "group": "last-30-days",
        "lat": 2.9403207736210373,
        "lon": 34.025530059812,
        "alt_km": 355.1411484050286,
        "timestamp": "2025-12-18T10:51:24.514859+00:00",
        "meta_object_name": "STARLINK-36080",
        "meta_object_id": "2025-278L",
        "meta_epoch": "2025-12-17T22:00:01.999584",
        "meta_mean_motion": 15.7340931,
        "meta_eccentricity": 0.0001794,
        "meta_inclination": 42.999,
        "meta_ra_of_asc_node": 220.4226,
        "meta_arg_of_pericenter": 268.7123,
        "meta_mean_anomaly": 111.202,
        "meta_ephemeris_type": 0,
        "meta_classification_type": "U",
        "meta_norad_cat_id": 66801,
        "meta_element_set_no": 999,
        "meta_rev_at_epoch": 379,
        "meta_bstar": -0.015504273,
        "meta_mean_motion_dot": -0.01964515,
        "meta_mean_motion_ddot": 0,
        "tle_line1": "1 66801U 25278L   25351.91668981 -.01964515  00000+0 -15504-1 0  9997",
        "tle_line2": "2 66801  42.9990 220.4226 0001794 268.7123 111.2020 15.73409310  3793"
      },
      "geometry": {
        "type": "Point",
        "coordinates": [
          34.025530059812,
          2.9403207736210373
        ]
      }
    },
    {
      "type": "Feature",
      "properties": {
        "norad_id": 66802,
        "name": "STARLINK-35604",
        "group": "last-30-days",
        "lat": 10.706230463870455,
        "lon": 25.507932789575033,
        "alt_km": 354.349463818834,
        "timestamp": "2025-12-18T10:51:24.514871+00:00",
        "meta_object_name": "STARLINK-35604",
        "meta_object_id": "2025-278M",
        "meta_epoch": "2025-12-17T22:00:01.999584",
        "meta_mean_motion": 15.73404666,
        "meta_eccentricity": 0.00014332,
        "meta_inclination": 42.9988,
        "meta_ra_of_asc_node": 220.4519,
        "meta_arg_of_pericenter": 272.6135,
        "meta_mean_anomaly": 95.8031,
        "meta_ephemeris_type": 0,
        "meta_classification_type": "U",
        "meta_norad_cat_id": 66802,
        "meta_element_set_no": 999,
        "meta_rev_at_epoch": 379,
        "meta_bstar": -0.015459345,
        "meta_mean_motion_dot": -0.01958828,
        "meta_mean_motion_ddot": 0,
        "tle_line1": "1 66802U 25278M   25351.91668981 -.01958828  00000+0 -15459-1 0  9997",
        "tle_line2": "2 66802  42.9988 220.4519 0001433 272.6135  95.8031 15.73404666  3791"
      },
      "geometry": {
        "type": "Point",
        "coordinates": [
          25.507932789575033,
          10.706230463870455
        ]
      }
    },
    {
      "type": "Feature",
      "properties": {
        "norad_id": 66803,
        "name": "STARLINK-35565",
        "group": "last-30-days",
        "lat": 8.13468974335476,
        "lon": 28.38074071501308,
        "alt_km": 354.4829158321927,
        "timestamp": "2025-12-18T10:51:24.514883+00:00",
        "meta_object_name": "STARLINK-35565",
        "meta_object_id": "2025-278N",
        "meta_epoch": "2025-12-17T22:00:01.999584",
        "meta_mean_motion": 15.73397357,
        "meta_eccentricity": 0.00015143,
        "meta_inclination": 42.9988,
        "meta_ra_of_asc_node": 220.442,
        "meta_arg_of_pericenter": 266.0363,
        "meta_mean_anomaly": 106.2206,
        "meta_ephemeris_type": 0,
        "meta_classification_type": "U",
        "meta_norad_cat_id": 66803,
        "meta_element_set_no": 999,
        "meta_rev_at_epoch": 387,
        "meta_bstar": -0.015404702,
        "meta_mean_motion_dot": -0.01912855,
        "meta_mean_motion_ddot": 0,
        "tle_line1": "1 66803U 25278N   25351.91668981 -.01912855  00000+0 -15405-1 0  9999",
        "tle_line2": "2 66803  42.9988 220.4420 0001514 266.0363 106.2206 15.73397357  3871"
      },
      "geometry": {
        "type": "Point",
        "coordinates": [
          28.38074071501308,
          8.13468974335476
        ]
      }
    },
    {
      "type": "Feature",
      "properties": {
        "norad_id": 66804,
        "name": "STARLINK-36038",
        "group": "last-30-days",
        "lat": 6.84487713019865,
        "lon": 29.79951006643507,
        "alt_km": 354.8307020107304,
        "timestamp": "2025-12-18T10:51:24.514895+00:00",
        "meta_object_name": "STARLINK-36038",
        "meta_object_id": "2025-278P",
        "meta_epoch": "2025-12-17T22:00:01.999584",
        "meta_mean_motion": 15.73404736,
        "meta_eccentricity": 0.0001723,
        "meta_inclination": 42.9991,
        "meta_ra_of_asc_node": 220.4382,
        "meta_arg_of_pericenter": 271.7228,
        "meta_mean_anomaly": 102.4435,
        "meta_ephemeris_type": 0,
        "meta_classification_type": "U",
        "meta_norad_cat_id": 66804,
        "meta_element_set_no": 999,
        "meta_rev_at_epoch": 379,
        "meta_bstar": -0.015480314,
        "meta_mean_motion_dot": -0.01961424,
        "meta_mean_motion_ddot": 0,
        "tle_line1": "1 66804U 25278P   25351.91668981 -.01961424  00000+0 -15480-1 0  9999",
        "tle_line2": "2 66804  42.9991 220.4382 0001723 271.7228 102.4435 15.73404736  3791"
      },
      "geometry": {
        "type": "Point",
        "coordinates": [
          29.79951006643507,
          6.84487713019865
        ]
      }
    },
    {
      "type": "Feature",
      "properties": {
        "norad_id": 66805,
        "name": "STARLINK-36049",
        "group": "last-30-days",
        "lat": 4.241395712045175,
        "lon": 32.625564355600886,
        "alt_km": 355.0467286323192,
        "timestamp": "2025-12-18T10:51:24.514907+00:00",
        "meta_object_name": "STARLINK-36049",
        "meta_object_id": "2025-278Q",
        "meta_epoch": "2025-12-17T22:00:01.999584",
        "meta_mean_motion": 15.73400689,
        "meta_eccentricity": 0.00015598,
        "meta_inclination": 42.999,
        "meta_ra_of_asc_node": 220.4277,
        "meta_arg_of_pericenter": 270.7859,
        "meta_mean_anomaly": 107.2208,
        "meta_ephemeris_type": 0,
        "meta_classification_type": "U",
        "meta_norad_cat_id": 66805,
        "meta_element_set_no": 999,
        "meta_rev_at_epoch": 379,
        "meta_bstar": -0.015447139,
        "meta_mean_motion_dot": -0.01957263,
        "meta_mean_motion_ddot": 0,
        "tle_line1": "1 66805U 25278Q   25351.91668981 -.01957263  00000+0 -15447-1 0  9999",
        "tle_line2": "2 66805  42.9990 220.4277 0001559 270.7859 107.2208 15.73400689  3794"
      },
      "geometry": {
        "type": "Point",
        "coordinates": [
          32.625564355600886,
          4.241395712045175
        ]
      }
    },
    {
      "type": "Feature",
      "properties": {
        "norad_id": 66806,
        "name": "STARLINK-36069",
        "group": "last-30-days",
        "lat": 5.542878792067192,
        "lon": 31.217515653366615,
        "alt_km": 354.9368902330134,
        "timestamp": "2025-12-18T10:51:24.514917+00:00",
        "meta_object_name": "STARLINK-36069",
        "meta_object_id": "2025-278R",
        "meta_epoch": "2025-12-17T22:00:01.999584",
        "meta_mean_motion": 15.73403862,
        "meta_eccentricity": 0.00015582,
        "meta_inclination": 42.999,
        "meta_ra_of_asc_node": 220.4327,
        "meta_arg_of_pericenter": 271.7341,
        "meta_mean_anomaly": 104.3527,
        "meta_ephemeris_type": 0,
        "meta_classification_type": "U",
        "meta_norad_cat_id": 66806,
        "meta_element_set_no": 999,
        "meta_rev_at_epoch": 358,
        "meta_bstar": -0.01546805,
        "meta_mean_motion_dot": -0.01959845,
        "meta_mean_motion_ddot": 0,
        "tle_line1": "1 66806U 25278R   25351.91668981 -.01959845  00000+0 -15468-1 0  9991",
        "tle_line2": "2 66806  42.9990 220.4327 0001558 271.7341 104.3527 15.73403862  3582"
      },
      "geometry": {
        "type": "Point",
        "coordinates": [
          31.217515653366615,
          5.542878792067192
        ]
      }
    },
    {
      "type": "Feature",
      "properties": {
        "norad_id": 66807,
        "name": "STARLINK-36000",
        "group": "last-30-days",
        "lat": 1.6346517351583396,
        "lon": 35.42649147528739,
        "alt_km": 355.38263598561934,
        "timestamp": "2025-12-18T10:51:24.514927+00:00",
        "meta_object_name": "STARLINK-36000",
        "meta_object_id": "2025-278S",
        "meta_epoch": "2025-12-17T22:00:01.999584",
        "meta_mean_motion": 15.73395762,
        "meta_eccentricity": 0.00018032,
        "meta_inclination": 42.999,
        "meta_ra_of_asc_node": 220.4187,
        "meta_arg_of_pericenter": 273.1123,
        "meta_mean_anomaly": 108.7238,
        "meta_ephemeris_type": 0,
        "meta_classification_type": "U",
        "meta_norad_cat_id": 66807,
        "meta_element_set_no": 999,
        "meta_rev_at_epoch": 384,
        "meta_bstar": -0.015361706,
        "meta_mean_motion_dot": -0.01908398,
        "meta_mean_motion_ddot": 0,
        "tle_line1": "1 66807U 25278S   25351.91668981 -.01908398  00000+0 -15362-1 0  9992",
        "tle_line2": "2 66807  42.9990 220.4187 0001803 273.1123 108.7238 15.73395762  3849"
      },
      "geometry": {
        "type": "Point",
        "coordinates": [
          35.42649147528739,
          1.6346517351583396
        ]
      }
    }
  ]
}